HULIANWANG DIGUI-118    
1 66957U 25287E   25351.30436594  .00000153  00000+0  15904-3 0  9997
2 66957  86.4948 344.4890 0007736 175.7001 184.4226 13.68572695  1156
CZ-6A R/B               
1 66958U 25287F   25351.29384231  .00000132  00000+0  80210-4 0  9996
2 66958  86.5059 344.3692 0107332  88.4635 272.8830 13.94920588  1178
STARLINK-35887          
1 66959U 25288A   25350.58336806 -.01103717  00000+0 -37977-2 0  9990
2 66959  43.0008 143.7995 0001617 269.3707   2.8159 15.91064311  2456
STARLINK-35879          
1 66960U 25288B   25350.58336806 -.01109780  00000+0 -38107-2 0  9994
2 66960  43.0008 143.7955 0001661 270.1089   3.6197 15.91117419  2455
STARLINK-35761          
1 66961U 25288C   25350.58336806 -.01286068  47494-3 -39038-2 0  9996
2 66961  43.0009 143.7913 0001648 269.4345   5.9922 15.91193502  2450
STARLINK-35874          
1 66962U 25288D   25350.58336806 -.01307049  48952-3 -39550-2 0  9999
2 66962  43.0009 143.7852 0001679 265.2732  12.5507 15.91258062  2457
STARLINK-36133          
1 66963U 25288E   25350.58336806 -.01333473  50811-3 -40225-2 0  9998
2 66963  43.0010 143.7809 0001662 264.2062  15.3668 15.91322500  2457
STARLINK-36104          
1 66964U 25288F   25350.58336806 -.01349864  51990-3 -40600-2 0  9996
2 66964  43.0012 143.7760 0001687 264.1667  17.2313 15.91381929  2451
STARLINK-36067          
1 66965U 25288G   25350.58336806 -.01392205  55057-3 -41720-2 0  9996
2 66965  43.0011 143.7715 0001618 269.0061  14.2021 15.91459647  2453
STARLINK-36139          
1 66966U 25288H   25350.58336806 -.01395724  55340-3 -41716-2 0  9996
2 66966  43.0010 143.7657 0001616 263.3630  22.1483 15.91510909  2454
STARLINK-36136          
1 66967U 25288J   25350.58336806 -.01418343  57027-3 -42269-2 0  9998
2 66967  43.0010 143.7610 0001656 261.6104  25.7030 15.91570387  2458
STARLINK-36152          
1 66968U 25288K   25350.58336806 -.01429785  57905-3 -42487-2 0  9998
2 66968  43.0011 143.7550 0001639 272.5242  17.1845 15.91628269  2450
