CCSDS_OMM_VERS = 2.0
CREATION_DATE  = 
ORIGINATOR     = 

OBJECT_NAME    = HULIANWANG DIGUI-118
OBJECT_ID      = 2025-287E
CENTER_NAME    = EARTH
REF_FRAME      = TEME
TIME_SYSTEM    = UTC
MEAN_ELEMENT_THEORY = SGP/SGP4

EPOCH          = 2025-12-17T07:18:17.217216
MEAN_MOTION    = 13.68572695
ECCENTRICITY   = .00077362
INCLINATION    = 86.4948
RA_OF_ASC_NODE = 344.4890
ARG_OF_PERICENTER = 175.7001
MEAN_ANOMALY   = 184.4226

EPHEMERIS_TYPE = 0
CLASSIFICATION_TYPE = U
NORAD_CAT_ID   = 66957
ELEMENT_SET_NO = 999
REV_AT_EPOCH   = 115
BSTAR          = .15903976E-3
MEAN_MOTION_DOT = .153E-5
MEAN_MOTION_DDOT = 0

CCSDS_OMM_VERS = 2.0
CREATION_DATE  = 
ORIGINATOR     = 

OBJECT_NAME    = CZ-6A R/B
OBJECT_ID      = 2025-287F
CENTER_NAME    = EARTH
REF_FRAME      = TEME
TIME_SYSTEM    = UTC
MEAN_ELEMENT_THEORY = SGP/SGP4

EPOCH          = 2025-12-17T07:03:07.975584
MEAN_MOTION    = 13.94920588
ECCENTRICITY   = .01073329
INCLINATION    = 86.5059
RA_OF_ASC_NODE = 344.3692
ARG_OF_PERICENTER = 88.4635
MEAN_ANOMALY   = 272.8830

EPHEMERIS_TYPE = 0
CLASSIFICATION_TYPE = U
NORAD_CAT_ID   = 66958
ELEMENT_SET_NO = 999
REV_AT_EPOCH   = 117
BSTAR          = .80210107E-4
MEAN_MOTION_DOT = .132E-5
MEAN_MOTION_DDOT = 0

CCSDS_OMM_VERS = 2.0
CREATION_DATE  = 
ORIGINATOR     = 

OBJECT_NAME    = STARLINK-35887
OBJECT_ID      = 2025-288A
CENTER_NAME    = EARTH
REF_FRAME      = TEME
TIME_SYSTEM    = UTC
MEAN_ELEMENT_THEORY = SGP/SGP4

EPOCH          = 2025-12-16T14:00:03.000384
MEAN_MOTION    = 15.91064311
ECCENTRICITY   = .00016179
INCLINATION    = 43.0008
RA_OF_ASC_NODE = 143.7995
ARG_OF_PERICENTER = 269.3707
MEAN_ANOMALY   = 2.8159

EPHEMERIS_TYPE = 0
CLASSIFICATION_TYPE = U
NORAD_CAT_ID   = 66959
ELEMENT_SET_NO = 999
REV_AT_EPOCH   = 245
BSTAR          = -.37977459E-2
MEAN_MOTION_DOT = -.1103717E-1
MEAN_MOTION_DDOT = 0

CCSDS_OMM_VERS = 2.0
CREATION_DATE  = 
ORIGINATOR     = 

OBJECT_NAME    = STARLINK-35879
OBJECT_ID      = 2025-288B
CENTER_NAME    = EARTH
REF_FRAME      = TEME
TIME_SYSTEM    = UTC
MEAN_ELEMENT_THEORY = SGP/SGP4

EPOCH          = 2025-12-16T14:00:03.000384
MEAN_MOTION    = 15.91117419
ECCENTRICITY   = .00016613
INCLINATION    = 43.0008
RA_OF_ASC_NODE = 143.7955
ARG_OF_PERICENTER = 270.1089
MEAN_ANOMALY   = 3.6197

EPHEMERIS_TYPE = 0
CLASSIFICATION_TYPE = U
NORAD_CAT_ID   = 66960
ELEMENT_SET_NO = 999
REV_AT_EPOCH   = 245
BSTAR          = -.38106711E-2
MEAN_MOTION_DOT = -.110978E-1
MEAN_MOTION_DDOT = 0

CCSDS_OMM_VERS = 2.0
CREATION_DATE  = 
ORIGINATOR     = 

OBJECT_NAME    = STARLINK-35761
OBJECT_ID      = 2025-288C
CENTER_NAME    = EARTH
REF_FRAME      = TEME
TIME_SYSTEM    = UTC
MEAN_ELEMENT_THEORY = SGP/SGP4

EPOCH          = 2025-12-16T14:00:03.000384
MEAN_MOTION    = 15.91193502
ECCENTRICITY   = .00016481
INCLINATION    = 43.0009
RA_OF_ASC_NODE = 143.7913
ARG_OF_PERICENTER = 269.4345
MEAN_ANOMALY   = 5.9922

EPHEMERIS_TYPE = 0
CLASSIFICATION_TYPE = U
NORAD_CAT_ID   = 66961
ELEMENT_SET_NO = 999
REV_AT_EPOCH   = 245
BSTAR          = -.39038489E-2
MEAN_MOTION_DOT = -.1286068E-1
MEAN_MOTION_DDOT = .47494021E-3

CCSDS_OMM_VERS = 2.0
CREATION_DATE  = 
ORIGINATOR     = 

OBJECT_NAME    = STARLINK-35874
OBJECT_ID      = 2025-288D
CENTER_NAME    = EARTH
REF_FRAME      = TEME
TIME_SYSTEM    = UTC
MEAN_ELEMENT_THEORY = SGP/SGP4

EPOCH          = 2025-12-16T14:00:03.000384
MEAN_MOTION    = 15.91258062
ECCENTRICITY   = .00016798
INCLINATION    = 43.0009
RA_OF_ASC_NODE = 143.7852
ARG_OF_PERICENTER = 265.2732
MEAN_ANOMALY   = 12.5507

EPHEMERIS_TYPE = 0
CLASSIFICATION_TYPE = U
NORAD_CAT_ID   = 66962
ELEMENT_SET_NO = 999
REV_AT_EPOCH   = 245
BSTAR          = -.39550127E-2
MEAN_MOTION_DOT = -.1307049E-1
MEAN_MOTION_DDOT = .48952147E-3

CCSDS_OMM_VERS = 2.0
CREATION_DATE  = 
ORIGINATOR     = 

OBJECT_NAME    = STARLINK-36133
OBJECT_ID      = 2025-288E
CENTER_NAME    = EARTH
REF_FRAME      = TEME
TIME_SYSTEM    = UTC
MEAN_ELEMENT_THEORY = SGP/SGP4

EPOCH          = 2025-12-16T14:00:03.000384
MEAN_MOTION    = 15.91322500
ECCENTRICITY   = .0001662
INCLINATION    = 43.0010
RA_OF_ASC_NODE = 143.7809
ARG_OF_PERICENTER = 264.2062
MEAN_ANOMALY   = 15.3668

EPHEMERIS_TYPE = 0
CLASSIFICATION_TYPE = U
NORAD_CAT_ID   = 66963
ELEMENT_SET_NO = 999
REV_AT_EPOCH   = 245
BSTAR          = -.40224604E-2
MEAN_MOTION_DOT = -.1333473E-1
MEAN_MOTION_DDOT = .50810595E-3

CCSDS_OMM_VERS = 2.0
CREATION_DATE  = 
ORIGINATOR     = 

OBJECT_NAME    = STARLINK-36104
OBJECT_ID      = 2025-288F
CENTER_NAME    = EARTH
REF_FRAME      = TEME
TIME_SYSTEM    = UTC
MEAN_ELEMENT_THEORY = SGP/SGP4

EPOCH          = 2025-12-16T14:00:03.000384
MEAN_MOTION    = 15.91381929
ECCENTRICITY   = .00016875
INCLINATION    = 43.0012
RA_OF_ASC_NODE = 143.7760
ARG_OF_PERICENTER = 264.1667
MEAN_ANOMALY   = 17.2313

EPHEMERIS_TYPE = 0
CLASSIFICATION_TYPE = U
NORAD_CAT_ID   = 66964
ELEMENT_SET_NO = 999
REV_AT_EPOCH   = 245
BSTAR          = -.40599566E-2
MEAN_MOTION_DOT = -.1349864E-1
MEAN_MOTION_DDOT = .51989801E-3

CCSDS_OMM_VERS = 2.0
CREATION_DATE  = 
ORIGINATOR     = 

OBJECT_NAME    = STARLINK-36067
OBJECT_ID      = 2025-288G
CENTER_NAME    = EARTH
REF_FRAME      = TEME
TIME_SYSTEM    = UTC
MEAN_ELEMENT_THEORY = SGP/SGP4

EPOCH          = 2025-12-16T14:00:03.000384
MEAN_MOTION    = 15.91459647
ECCENTRICITY   = .00016181
INCLINATION    = 43.0011
RA_OF_ASC_NODE = 143.7715
ARG_OF_PERICENTER = 269.0061
MEAN_ANOMALY   = 14.2021

EPHEMERIS_TYPE = 0
CLASSIFICATION_TYPE = U
NORAD_CAT_ID   = 66965
ELEMENT_SET_NO = 999
REV_AT_EPOCH   = 245
BSTAR          = -.41720134E-2
MEAN_MOTION_DOT = -.1392205E-1
MEAN_MOTION_DDOT = .55057089E-3

CCSDS_OMM_VERS = 2.0
CREATION_DATE  = 
ORIGINATOR     = 

OBJECT_NAME    = STARLINK-36139
OBJECT_ID      = 2025-288H
CENTER_NAME    = EARTH
REF_FRAME      = TEME
TIME_SYSTEM    = UTC
MEAN_ELEMENT_THEORY = SGP/SGP4

EPOCH          = 2025-12-16T14:00:03.000384
MEAN_MOTION    = 15.91510909
ECCENTRICITY   = .00016164
INCLINATION    = 43.0010
RA_OF_ASC_NODE = 143.7657
ARG_OF_PERICENTER = 263.3630
MEAN_ANOMALY   = 22.1483

EPHEMERIS_TYPE = 0
CLASSIFICATION_TYPE = U
NORAD_CAT_ID   = 66966
ELEMENT_SET_NO = 999
REV_AT_EPOCH   = 245
BSTAR          = -.41716004E-2
MEAN_MOTION_DOT = -.1395724E-1
MEAN_MOTION_DDOT = .5533968E-3

CCSDS_OMM_VERS = 2.0
CREATION_DATE  = 
ORIGINATOR     = 

OBJECT_NAME    = STARLINK-36136
OBJECT_ID      = 2025-288J
CENTER_NAME    = EARTH
REF_FRAME      = TEME
TIME_SYSTEM    = UTC
MEAN_ELEMENT_THEORY = SGP/SGP4

EPOCH          = 2025-12-16T14:00:03.000384
MEAN_MOTION    = 15.91570387
ECCENTRICITY   = .00016567
INCLINATION    = 43.0010
RA_OF_ASC_NODE = 143.7610
ARG_OF_PERICENTER = 261.6104
MEAN_ANOMALY   = 25.7030

EPHEMERIS_TYPE = 0
CLASSIFICATION_TYPE = U
NORAD_CAT_ID   = 66967
ELEMENT_SET_NO = 999
REV_AT_EPOCH   = 245
BSTAR          = -.42269257E-2
MEAN_MOTION_DOT = -.1418343E-1
MEAN_MOTION_DDOT = .5702704E-3

CCSDS_OMM_VERS = 2.0
CREATION_DATE  = 
ORIGINATOR     = 

OBJECT_NAME    = STARLINK-36152
OBJECT_ID      = 2025-288K
CENTER_NAME    = EARTH
REF_FRAME      = TEME
TIME_SYSTEM    = UTC
MEAN_ELEMENT_THEORY = SGP/SGP4

EPOCH          = 2025-12-16T14:00:03.000384
MEAN_MOTION    = 15.91628269
ECCENTRICITY   = .00016391
INCLINATION    = 43.0011
RA_OF_ASC_NODE = 143.7550
ARG_OF_PERICENTER = 272.5242
MEAN_ANOMALY   = 17.1845

EPHEMERIS_TYPE = 0
CLASSIFICATION_TYPE = U
NORAD_CAT_ID   = 66968
ELEMENT_SET_NO = 999
REV_AT_EPOCH   = 245
BSTAR          = -.42486776E-2
MEAN_MOTION_DOT = -.1429785E-1
MEAN_MOTION_DDOT = .57905283E-3

